NORAD_CAT_ID,OBJECT_NAME,OBJECT_TYPE,EPOCH,MEAN_MOTION,ECCENTRICITY,INCLINATION,RA_OF_ASC_NODE,ARG_OF_PERICENTER,MEAN_ANOMALY,BSTAR,MEAN_MOTION_DOT,MEAN_MOTION_DDOT,TLE_LINE0,TLE_LINE1,TLE_LINE2,SEMIMAJOR_AXIS,PERIOD,APOGEE,PERIGEE,DECAYED
52554.0,STARLINK-3770,PAYLOAD,2023-09-08 14:07:17,15.08844413,0.0001535,53.2165,273.1901,88.2252,271.8916,0.00012529,1.707e-05,0.0,0 STARLINK-3770,1 52554U 22051X   23251.58839446  .00001707  00000-0  12529-3 0  9998,2 52554  53.2165 273.1901 0001535  88.2252 271.8916 15.08844413 73528,6917.867,95.437,540.794,538.67,0.0
52554.0,STARLINK-3770,PAYLOAD,2023-09-09 07:36:32,15.0883945,0.0001481,53.2158,269.9184,90.2392,269.877,9.6418e-05,1.247e-05,0.0,0 STARLINK-3770,1 52554U 22051X   23252.31703901  .00001247  00000-0  96418-4 0  9995,2 52554  53.2158 269.9184 0001481  90.2392 269.8770 15.08839450 73704,6917.882,95.438,540.772,538.723,0.0
52554.0,STARLINK-3770,PAYLOAD,2023-09-09 12:22:41,15.08844207,0.0001463,53.2161,269.0261,91.0037,269.1123,9.8694e-05,1.283e-05,0.0,0 STARLINK-3770,1 52554U 22051X   23252.51575613  .00001283  00000-0  98694-4 0  9992,2 52554  53.2161 269.0261 0001463  91.0037 269.1123 15.08844207 73666,6917.868,95.437,540.745,538.72,0.0
52554.0,STARLINK-3770,PAYLOAD,2023-09-10 10:38:05,15.08846691,0.0001487,53.2166,264.8621,94.3369,265.7793,6.7464e-05,7.86e-06,0.0,0 STARLINK-3770,1 52554U 22051X   23253.44311421  .00000786  00000-0  67464-4 0  9998,2 52554  53.2166 264.8621 0001487  94.3369 265.7793 15.08846691 73871,6917.86,95.437,540.754,538.696,0.0
52554.0,STARLINK-3770,PAYLOAD,2023-09-11 00:56:34,15.08835226,0.0001461,53.2163,262.1868,90.5078,269.6081,4.7074e-05,4.61e-06,0.0,0 STARLINK-3770,1 52554U 22051X   23254.03928299  .00000461  00000-0  47074-4 0  9996,2 52554  53.2163 262.1868 0001461  90.5078 269.6081 15.08835226 73964,6917.895,95.438,540.771,538.749,0.0
52554.0,STARLINK-3770,PAYLOAD,2023-09-11 12:04:15,15.08839685,0.0001434,53.2163,260.1058,86.5955,273.5202,1.8762e-05,1.1e-07,0.0,0 STARLINK-3770,1 52554U 22051X   23254.50296163  .00000011  00000-0  18762-4 0  9999,2 52554  53.2163 260.1058 0001434  86.5955 273.5202 15.08839685 73964,6917.881,95.438,540.738,538.754,0.0
52554.0,STARLINK-3770,PAYLOAD,2023-09-12 08:44:16,15.08847271,0.0001502,53.2164,256.24,87.396,272.7204,0.00011426,1.531e-05,0.0,0 STARLINK-3770,1 52554U 22051X   23255.36407424  .00001531  00000-0  11426-3 0  9995,2 52554  53.2164 256.2400 0001502  87.3960 272.7204 15.08847271 74169,6917.858,95.437,540.762,538.684,0.0
52554.0,STARLINK-3770,PAYLOAD,2023-09-12 19:51:58,15.08835982,0.00016,53.2169,254.1595,102.1804,257.9368,9.3245e-05,1.196e-05,0.0,0 STARLINK-3770,1 52554U 22051X   23255.82776169  .00001196  00000-0  93245-4 0  9998,2 52554  53.2169 254.1595 0001600 102.1804 257.9368 15.08835982 74160,6917.893,95.438,540.865,538.651,0.0
52554.0,STARLINK-3770,PAYLOAD,2023-09-12 23:02:44,15.08835549,0.0001622,53.2169,253.5656,99.5869,260.5306,8.4523e-05,1.057e-05,0.0,0 STARLINK-3770,1 52554U 22051X   23255.96024260  .00001057  00000-0  84523-4 0  9996,2 52554  53.2169 253.5656 0001622  99.5869 260.5306 15.08835549 74256,6917.894,95.438,540.881,538.637,0.0
52554.0,STARLINK-3770,PAYLOAD,2023-09-13 10:10:26,15.08843674,0.0001517,53.2166,251.4829,97.7202,262.3963,0.0001302,1.785e-05,0.0,0 STARLINK-3770,1 52554U 22051X   23256.42391642  .00001785  00000-0  13020-3 0  9990,2 52554  53.2166 251.4829 0001517  97.7202 262.3963 15.08843674 74253,6917.869,95.437,540.784,538.685,0.0
52554.0,STARLINK-3770,PAYLOAD,2023-09-13 16:31:59,15.08831327,0.000128,53.217,250.2916,85.9689,274.1449,-1.6847e-06,-3.15e-06,0.0,0 STARLINK-3770,1 52554U 22051X   23256.68888751 -.00000315  00000-0 -16847-5 0  9992,2 52554  53.2170 250.2916 0001280  85.9689 274.1449 15.08831327 74361,6917.907,95.438,540.657,538.886,0.0
52554.0,STARLINK-3770,PAYLOAD,2023-09-14 08:25:52,15.08828376,0.0001718,53.2179,247.3228,100.3944,259.7242,-8.553e-05,-1.649e-05,0.0,0 STARLINK-3770,1 52554U 22051X   23257.35129746 -.00001649  00000-0 -85530-4 0  9994,2 52554  53.2179 247.3228 0001718 100.3944 259.7242 15.08828376 74398,6917.916,95.438,540.969,538.592,0.0
52554.0,STARLINK-3770,PAYLOAD,2023-09-14 16:22:47,15.08833994,0.0001661,53.2175,245.8352,100.5799,259.5381,3.4064e-06,-2.34e-06,0.0,0 STARLINK-3770,1 52554U 22051X   23257.68249314 -.00000234  00000-0  34064-5 0  9999,2 52554  53.2175 245.8352 0001661 100.5799 259.5381 15.08833994 74442,6917.899,95.438,540.913,538.615,0.0
52554.0,STARLINK-3770,PAYLOAD,2023-09-15 03:30:28,15.08841043,0.0001624,53.2174,243.7534,99.2115,260.9061,9.4055e-05,1.209e-05,0.0,0 STARLINK-3770,1 52554U 22051X   23258.14616770  .00001209  00000-0  94055-4 0  9992,2 52554  53.2174 243.7534 0001624  99.2115 260.9061 15.08841043 74585,6917.877,95.437,540.866,538.619,0.0
52554.0,STARLINK-3770,PAYLOAD,2023-09-15 11:27:24,15.08848563,0.000153,53.2168,242.2642,92.581,267.5358,0.00011874,1.603e-05,0.0,0 STARLINK-3770,1 52554U 22051X   23258.47736281  .00001603  00000-0  11874-3 0  9993,2 52554  53.2168 242.2642 0001530  92.5810 267.5358 15.08848563 74560,6917.854,95.437,540.778,538.661,0.0
52554.0,STARLINK-3770,PAYLOAD,2023-09-16 06:32:02,15.08845925,0.0001473,53.2164,238.6964,90.9395,269.1766,0.00027356,4.069e-05,0.0,0 STARLINK-3770,1 52554U 22051X   23259.27224555  .00004069  00000-0  27356-3 0  9999,2 52554  53.2164 238.6964 0001473  90.9395 269.1766 15.08845925 74759,6917.862,95.437,540.746,538.708,0.0
52554.0,STARLINK-3770,PAYLOAD,2023-09-16 16:04:21,15.08837554,0.0001455,53.215,236.9103,94.2055,265.9104,0.00011352,1.519e-05,0.0,0 STARLINK-3770,1 52554U 22051X   23259.66969182  .00001519  00000-0  11352-3 0  9990,2 52554  53.2150 236.9103 0001455  94.2055 265.9104 15.08837554 74816,6917.888,95.438,540.759,538.746,0.0
52554.0,STARLINK-3770,PAYLOAD,2023-09-17 07:58:12,15.08845708,0.0001454,53.216,233.9365,95.1896,264.9262,5.155e-05,5.33e-06,0.0,0 STARLINK-3770,1 52554U 22051X   23260.33208949  .00000533  00000-0  51550-4 0  9993,2 52554  53.2160 233.9365 0001454  95.1896 264.9262 15.08845708 74843,6917.863,95.437,540.734,538.722,0.0
52554.0,STARLINK-3770,PAYLOAD,2023-09-18 01:27:26,15.08849444,0.0001613,53.2167,230.6658,92.0107,268.107,8.2767e-05,1.03e-05,0.0,0 STARLINK-3770,1 52554U 22051X   23261.06072469  .00001030  00000-0  82767-4 0  9997,2 52554  53.2167 230.6658 0001613  92.0107 268.1070 15.08849444 75022,6917.852,95.437,540.832,538.601,0.0
52554.0,STARLINK-3770,PAYLOAD,2023-09-18 04:38:12,15.088511,0.0001488,53.2161,230.0705,96.4481,263.668,6.7581e-05,7.88e-06,0.0,0 STARLINK-3770,1 52554U 22051X   23261.19320263  .00000788  00000-0  67581-4 0  9995,2 52554  53.2161 230.0705 0001488  96.4481 263.6680 15.08851100 74978,6917.846,95.437,540.741,538.682,0.0
52554.0,STARLINK-3770,PAYLOAD,2023-09-19 02:53:36,15.08842333,0.0001443,53.2164,225.9068,96.8877,263.2279,0.00015547,2.187e-05,0.0,0 STARLINK-3770,1 52554U 22051X   23262.12056490  .00002187  00000-0  15547-3 0  9996,2 52554  53.2164 225.9068 0001443  96.8877 263.2279 15.08842333 75182,6917.873,95.437,540.737,538.74,0.0
52554.0,STARLINK-3770,PAYLOAD,2023-09-19 07:39:45,15.08852192,0.000146,53.2166,225.0148,100.6053,259.5104,0.00017135,2.441e-05,0.0,0 STARLINK-3770,1 52554U 22051X   23262.31927819  .00002441  00000-0  17135-3 0  9997,2 52554  53.2166 225.0148 0001460 100.6053 259.5104 15.08852192 75216,6917.843,95.437,540.718,538.698,0.0
52554.0,STARLINK-3770,PAYLOAD,2023-09-20 04:19:46,15.08842379,0.0001539,53.2171,221.152,99.3645,260.7522,4.3231e-06,-2.19e-06,0.0,0 STARLINK-3770,1 52554U 22051X   23263.18040434 -.00000219  00000-0  43231-5 0  9992,2 52554  53.2171 221.1520 0001539  99.3645 260.7522 15.08842379 75349,6917.873,95.437,540.803,538.673,0.0
52554.0,STARLINK-3770,PAYLOAD,2023-09-20 13:52:05,15.08845328,0.00015,53.2168,219.3659,97.0744,263.0419,2.2897e-05,7.6e-07,0.0,0 STARLINK-3770,1 52554U 22051X   23263.57784278  .00000076  00000-0  22897-4 0  9990,2 52554  53.2168 219.3659 0001500  97.0744 263.0419 15.08845328 75337,6917.864,95.437,540.767,538.691,0.0
52554.0,STARLINK-3770,PAYLOAD,2023-09-20 21:49:02,15.0882005,0.0001593,53.2173,217.8818,99.0129,261.1043,9.5364e-05,1.229e-05,0.0,0 STARLINK-3770,1 52554U 22051X   23263.90905990  .00001229  00000-0  95364-4 0  9993,2 52554  53.2173 217.8818 0001593  99.0129 261.1043 15.08820050 75386,6917.941,95.439,540.908,538.704,0.0
52554.0,STARLINK-3770,PAYLOAD,2023-09-21 02:35:13,15.08799698,0.0001589,53.217,216.9886,95.9618,264.1555,0.00063493,9.82e-05,0.0,0 STARLINK-3770,1 52554U 22051X   23264.10779281  .00009820  00000-0  63493-3 0  9990,2 52554  53.2170 216.9886 0001589  95.9618 264.1555 15.08799698 75486,6918.004,95.44,540.968,538.769,0.0
52554.0,STARLINK-3770,PAYLOAD,2023-09-21 05:45:58,15.08829414,0.0001362,53.2166,216.3932,94.587,265.5278,-0.0001225,-2.236e-05,0.0,0 STARLINK-3770,1 52554U 22051X   23264.24025722 -.00002236  00000-0 -12250-3 0  9990,2 52554  53.2166 216.3932 0001362  94.5870 265.5278 15.08829414 75501,6917.913,95.438,540.72,538.836,0.0
52554.0,STARLINK-3770,PAYLOAD,2023-09-22 04:01:21,15.088545,0.0001259,53.216,212.2297,84.6606,275.4529,0.00052734,8.118e-05,0.0,0 STARLINK-3770,1 52554U 22051X   23265.16761393  .00008118  00000-0  52734-3 0  9997,2 52554  53.2160 212.2297 0001259  84.6606 275.4529 15.08854500 75644,6917.836,95.437,540.572,538.83,0.0
52554.0,STARLINK-3770,PAYLOAD,2023-09-23 02:16:45,15.08852202,0.000129,53.2158,208.0668,83.7589,276.355,0.00035585,5.382e-05,0.0,0 STARLINK-3770,1 52554U 22051X   23266.09497501  .00005382  00000-0  35585-3 0  9992,2 52554  53.2158 208.0668 0001290  83.7589 276.3550 15.08852202 75787,6917.843,95.437,540.6,538.816,0.0
52554.0,STARLINK-3770,PAYLOAD,2023-09-23 05:27:31,15.08854399,0.0001281,53.2155,207.4718,86.1192,273.9947,0.0003658,5.541e-05,0.0,0 STARLINK-3770,1 52554U 22051X   23266.22745301  .00005541  00000-0  36580-3 0  9994,2 52554  53.2155 207.4718 0001281  86.1192 273.9947 15.08854399 75737,6917.836,95.437,540.588,538.815,0.0
